TIANLIAN 2-05           
1 63662U 25084A   26095.10728562  .00000120  00000+0  00000+0 0  9996
2 63662   4.6372 280.6411 0003544 104.8062 226.9364  1.00273683  3641
TJS-19                  
1 63924U 25097A   26093.72836493 -.00000281  00000+0  00000+0 0  9999
2 63924   3.4137 316.2641 0001950 343.2310 296.0232  1.00273599  3393
CHINASAT 3B             
1 64062U 25106A   26095.20764604 -.00000044  00000+0  00000+0 0  9990
2 64062   0.0406   5.2436 0001493  15.1092  55.2207  1.00272324  3325
SXM-10                  
1 64290U 25122A   26095.22281276 -.00000016  00000+0  00000+0 0  9991
2 64290   0.0018  92.6114 0002607 284.1583 140.8009  1.00272404  2959
CHINASAT 9C             
1 64470U 25132A   26095.12753198 -.00000246  00000+0  00000+0 0  9993
2 64470   0.0387  93.8453 0002828 281.0900 316.6164  1.00271451  3419
MTG-S1                  
1 64723U 25143A   26095.10251894 -.00000031  00000+0  00000+0 0  9992
2 64723   0.6196 332.4344 0002059 359.3781 254.9879  1.00273594  2682
DROR 1                  
1 64784U 25148A   26095.24499655 -.00000033  00000+0  00000+0 0  9990
2 64784   0.0509  68.6357 0003616 296.2543 272.8453  1.00271836  2569
SHIYAN-29               
1 65486U 25196A   26095.00538276 -.00000276  00000+0  00000+0 0  9999
2 65486  28.7451  19.4581 0009615 177.4148  93.8716  1.00279347  2143
NUSANTARA LIMA (NUSANT*)
1 65588U 25205A   26095.05424542 -.00000357  00000+0  00000+0 0  9998
2 65588   0.0433  43.5336 0000949  12.2160 270.0094  1.00272964  1983
TJS-20                  
1 66142U 25238A   26095.18239307  .00000021  00000+0  00000+0 0  9995
2 66142   5.6327 299.8224 0008472 103.8939 277.7940  1.00271366  1603
CMS-03 (GSAT-7R)        
1 66311U 25249B   26095.18901264 -.00000076  00000+0  00000+0 0  9994
2 66311   0.0477 264.7517 0003883 101.8949 328.8996  1.00272319  1611
VIASAT-3 F2             
1 66454U 25261A   26095.16919711 -.00000233  00000+0  00000+0 0  9995
2 66454   0.0392 270.4026 0002741 172.6931  92.3082  1.00272389  2058
SHIJIAN-28 (SJ-28)      
1 66549U 25277A   26095.26900332 -.00000364  00000+0  00000+0 0  9992
2 66549   4.7268 273.2491 0000071 175.4790 318.5316  1.00273383  1429
TJS-22                  
1 66990U 25290A   26095.06973955 -.00000008  00000+0  00000+0 0  9991
2 66990   1.7087 285.7191 0002527   1.4769 357.7496  1.00273118  1297
TJS-23                  
1 67226U 25306A   26094.80291575  .00000012  00000+0  00000+0 0  9998
2 67226   5.7558 297.8505 0006601 118.6284 241.1987  1.00274690  1152
FENGYUN 4C              
1 67246U 25312A   26094.98699822 -.00000322  00000+0  00000+0 0  9998
2 67246   0.0173  86.0552 0000749   4.1684 231.3872  1.00271495  1047
SHIJIAN-29A (SJ-29A)    
1 67302U 25315A   26095.08462671 -.00000066  00000+0  00000+0 0  9991
2 67302   3.2118  96.9420 0002829 317.9881 242.1953  1.00274602   887
