[{"OBJECT_NAME":"TIANLIAN 2-05","OBJECT_ID":"2025-084A","EPOCH":"2026-04-05T02:34:29.477568","MEAN_MOTION":1.00273683,"ECCENTRICITY":0.00035441,"INCLINATION":4.6372,"RA_OF_ASC_NODE":280.6411,"ARG_OF_PERICENTER":104.8062,"MEAN_ANOMALY":226.9364,"EPHEMERIS_TYPE":0,"CLASSIFICATION_TYPE":"U","NORAD_CAT_ID":63662,"ELEMENT_SET_NO":999,"REV_AT_EPOCH":364,"BSTAR":0,"MEAN_MOTION_DOT":1.2e-6,"MEAN_MOTION_DDOT":0},{"OBJECT_NAME":"TJS-19","OBJECT_ID":"2025-097A","EPOCH":"2026-04-03T17:28:50.729952","MEAN_MOTION":1.00273599,"ECCENTRICITY":0.000195,"INCLINATION":3.4137,"RA_OF_ASC_NODE":316.2641,"ARG_OF_PERICENTER":343.231,"MEAN_ANOMALY":296.0232,"EPHEMERIS_TYPE":0,"CLASSIFICATION_TYPE":"U","NORAD_CAT_ID":63924,"ELEMENT_SET_NO":999,"REV_AT_EPOCH":339,"BSTAR":0,"MEAN_MOTION_DOT":-2.81e-6,"MEAN_MOTION_DDOT":0},{"OBJECT_NAME":"CHINASAT 3B","OBJECT_ID":"2025-106A","EPOCH":"2026-04-05T04:59:00.617856","MEAN_MOTION":1.00272324,"ECCENTRICITY":0.00014931,"INCLINATION":0.0406,"RA_OF_ASC_NODE":5.2436,"ARG_OF_PERICENTER":15.1092,"MEAN_ANOMALY":55.2207,"EPHEMERIS_TYPE":0,"CLASSIFICATION_TYPE":"U","NORAD_CAT_ID":64062,"ELEMENT_SET_NO":999,"REV_AT_EPOCH":332,"BSTAR":0,"MEAN_MOTION_DOT":-4.4e-7,"MEAN_MOTION_DDOT":0},{"OBJECT_NAME":"SXM-10","OBJECT_ID":"2025-122A","EPOCH":"2026-04-05T05:20:51.022464","MEAN_MOTION":1.00272404,"ECCENTRICITY":0.00026071,"INCLINATION":0.0018,"RA_OF_ASC_NODE":92.6114,"ARG_OF_PERICENTER":284.1583,"MEAN_ANOMALY":140.8009,"EPHEMERIS_TYPE":0,"CLASSIFICATION_TYPE":"U","NORAD_CAT_ID":64290,"ELEMENT_SET_NO":999,"REV_AT_EPOCH":295,"BSTAR":0,"MEAN_MOTION_DOT":-1.6e-7,"MEAN_MOTION_DDOT":0},{"OBJECT_NAME":"CHINASAT 9C","OBJECT_ID":"2025-132A","EPOCH":"2026-04-05T03:03:38.763072","MEAN_MOTION":1.00271451,"ECCENTRICITY":0.00028283,"INCLINATION":0.0387,"RA_OF_ASC_NODE":93.8453,"ARG_OF_PERICENTER":281.09,"MEAN_ANOMALY":316.6164,"EPHEMERIS_TYPE":0,"CLASSIFICATION_TYPE":"U","NORAD_CAT_ID":64470,"ELEMENT_SET_NO":999,"REV_AT_EPOCH":341,"BSTAR":0,"MEAN_MOTION_DOT":-2.46e-6,"MEAN_MOTION_DDOT":0},{"OBJECT_NAME":"MTG-S1","OBJECT_ID":"2025-143A","EPOCH":"2026-04-05T02:27:37.636416","MEAN_MOTION":1.00273594,"ECCENTRICITY":0.00020591,"INCLINATION":0.6196,"RA_OF_ASC_NODE":332.4344,"ARG_OF_PERICENTER":359.3781,"MEAN_ANOMALY":254.9879,"EPHEMERIS_TYPE":0,"CLASSIFICATION_TYPE":"U","NORAD_CAT_ID":64723,"ELEMENT_SET_NO":999,"REV_AT_EPOCH":268,"BSTAR":0,"MEAN_MOTION_DOT":-3.1e-7,"MEAN_MOTION_DDOT":0},{"OBJECT_NAME":"DROR 1","OBJECT_ID":"2025-148A","EPOCH":"2026-04-05T05:52:47.701920","MEAN_MOTION":1.00271836,"ECCENTRICITY":0.00036161,"INCLINATION":0.0509,"RA_OF_ASC_NODE":68.6357,"ARG_OF_PERICENTER":296.2543,"MEAN_ANOMALY":272.8453,"EPHEMERIS_TYPE":0,"CLASSIFICATION_TYPE":"U","NORAD_CAT_ID":64784,"ELEMENT_SET_NO":999,"REV_AT_EPOCH":256,"BSTAR":0,"MEAN_MOTION_DOT":-3.3e-7,"MEAN_MOTION_DDOT":0},{"OBJECT_NAME":"SHIYAN-29","OBJECT_ID":"2025-196A","EPOCH":"2026-04-05T00:07:45.070464","MEAN_MOTION":1.00279347,"ECCENTRICITY":0.0009615,"INCLINATION":28.7451,"RA_OF_ASC_NODE":19.4581,"ARG_OF_PERICENTER":177.4148,"MEAN_ANOMALY":93.8716,"EPHEMERIS_TYPE":0,"CLASSIFICATION_TYPE":"U","NORAD_CAT_ID":65486,"ELEMENT_SET_NO":999,"REV_AT_EPOCH":214,"BSTAR":0,"MEAN_MOTION_DOT":-2.76e-6,"MEAN_MOTION_DDOT":0},{"OBJECT_NAME":"NUSANTARA LIMA (NUSANTARA 5)","OBJECT_ID":"2025-205A","EPOCH":"2026-04-05T01:18:06.804288","MEAN_MOTION":1.00272964,"ECCENTRICITY":9.492e-5,"INCLINATION":0.0433,"RA_OF_ASC_NODE":43.5336,"ARG_OF_PERICENTER":12.216,"MEAN_ANOMALY":270.0094,"EPHEMERIS_TYPE":0,"CLASSIFICATION_TYPE":"U","NORAD_CAT_ID":65588,"ELEMENT_SET_NO":999,"REV_AT_EPOCH":198,"BSTAR":0,"MEAN_MOTION_DOT":-3.57e-6,"MEAN_MOTION_DDOT":0},{"OBJECT_NAME":"TJS-20","OBJECT_ID":"2025-238A","EPOCH":"2026-04-05T04:22:38.761248","MEAN_MOTION":1.00271366,"ECCENTRICITY":0.00084725,"INCLINATION":5.6327,"RA_OF_ASC_NODE":299.8224,"ARG_OF_PERICENTER":103.8939,"MEAN_ANOMALY":277.794,"EPHEMERIS_TYPE":0,"CLASSIFICATION_TYPE":"U","NORAD_CAT_ID":66142,"ELEMENT_SET_NO":999,"REV_AT_EPOCH":160,"BSTAR":0,"MEAN_MOTION_DOT":2.1e-7,"MEAN_MOTION_DDOT":0},{"OBJECT_NAME":"CMS-03 (GSAT-7R)","OBJECT_ID":"2025-249B","EPOCH":"2026-04-05T04:32:10.692096","MEAN_MOTION":1.00272319,"ECCENTRICITY":0.00038831,"INCLINATION":0.0477,"RA_OF_ASC_NODE":264.7517,"ARG_OF_PERICENTER":101.8949,"MEAN_ANOMALY":328.8996,"EPHEMERIS_TYPE":0,"CLASSIFICATION_TYPE":"U","NORAD_CAT_ID":66311,"ELEMENT_SET_NO":999,"REV_AT_EPOCH":161,"BSTAR":0,"MEAN_MOTION_DOT":-7.6e-7,"MEAN_MOTION_DDOT":0},{"OBJECT_NAME":"VIASAT-3 F2","OBJECT_ID":"2025-261A","EPOCH":"2026-04-05T04:03:38.630304","MEAN_MOTION":1.00272389,"ECCENTRICITY":0.00027418,"INCLINATION":0.0392,"RA_OF_ASC_NODE":270.4026,"ARG_OF_PERICENTER":172.6931,"MEAN_ANOMALY":92.3082,"EPHEMERIS_TYPE":0,"CLASSIFICATION_TYPE":"U","NORAD_CAT_ID":66454,"ELEMENT_SET_NO":999,"REV_AT_EPOCH":205,"BSTAR":0,"MEAN_MOTION_DOT":-2.33e-6,"MEAN_MOTION_DDOT":0},{"OBJECT_NAME":"SHIJIAN-28 (SJ-28)","OBJECT_ID":"2025-277A","EPOCH":"2026-04-05T06:27:21.886848","MEAN_MOTION":1.00273383,"ECCENTRICITY":7.18e-6,"INCLINATION":4.7268,"RA_OF_ASC_NODE":273.2491,"ARG_OF_PERICENTER":175.479,"MEAN_ANOMALY":318.5316,"EPHEMERIS_TYPE":0,"CLASSIFICATION_TYPE":"U","NORAD_CAT_ID":66549,"ELEMENT_SET_NO":999,"REV_AT_EPOCH":142,"BSTAR":0,"MEAN_MOTION_DOT":-3.64e-6,"MEAN_MOTION_DDOT":0},{"OBJECT_NAME":"TJS-22","OBJECT_ID":"2025-290A","EPOCH":"2026-04-05T01:40:25.497120","MEAN_MOTION":1.00273118,"ECCENTRICITY":0.00025279,"INCLINATION":1.7087,"RA_OF_ASC_NODE":285.7191,"ARG_OF_PERICENTER":1.4769,"MEAN_ANOMALY":357.7496,"EPHEMERIS_TYPE":0,"CLASSIFICATION_TYPE":"U","NORAD_CAT_ID":66990,"ELEMENT_SET_NO":999,"REV_AT_EPOCH":129,"BSTAR":0,"MEAN_MOTION_DOT":-8.0e-8,"MEAN_MOTION_DDOT":0},{"OBJECT_NAME":"TJS-23","OBJECT_ID":"2025-306A","EPOCH":"2026-04-04T19:16:11.920800","MEAN_MOTION":1.0027469,"ECCENTRICITY":0.00066014,"INCLINATION":5.7558,"RA_OF_ASC_NODE":297.8505,"ARG_OF_PERICENTER":118.6284,"MEAN_ANOMALY":241.1987,"EPHEMERIS_TYPE":0,"CLASSIFICATION_TYPE":"U","NORAD_CAT_ID":67226,"ELEMENT_SET_NO":999,"REV_AT_EPOCH":115,"BSTAR":0,"MEAN_MOTION_DOT":1.2e-7,"MEAN_MOTION_DDOT":0},{"OBJECT_NAME":"FENGYUN 4C","OBJECT_ID":"2025-312A","EPOCH":"2026-04-04T23:41:16.646208","MEAN_MOTION":1.00271495,"ECCENTRICITY":7.498e-5,"INCLINATION":0.0173,"RA_OF_ASC_NODE":86.0552,"ARG_OF_PERICENTER":4.1684,"MEAN_ANOMALY":231.3872,"EPHEMERIS_TYPE":0,"CLASSIFICATION_TYPE":"U","NORAD_CAT_ID":67246,"ELEMENT_SET_NO":999,"REV_AT_EPOCH":104,"BSTAR":0,"MEAN_MOTION_DOT":-3.22e-6,"MEAN_MOTION_DDOT":0},{"OBJECT_NAME":"SHIJIAN-29A (SJ-29A)","OBJECT_ID":"2025-315A","EPOCH":"2026-04-05T02:01:51.747744","MEAN_MOTION":1.00274602,"ECCENTRICITY":0.00028291,"INCLINATION":3.2118,"RA_OF_ASC_NODE":96.942,"ARG_OF_PERICENTER":317.9881,"MEAN_ANOMALY":242.1953,"EPHEMERIS_TYPE":0,"CLASSIFICATION_TYPE":"U","NORAD_CAT_ID":67302,"ELEMENT_SET_NO":999,"REV_AT_EPOCH":88,"BSTAR":0,"MEAN_MOTION_DOT":-6.6e-7,"MEAN_MOTION_DDOT":0}]
